QIANFAN-17              
1 60395U 24140S   25295.85139811  .00000041  00000+0  44666-4 0  9997
2 60395  88.9747 304.7069 0014868   1.0914 359.0267 13.50970292 61264
QIANFAN-18              
1 60396U 24140T   25295.83080185  .00000046  00000+0  53301-4 0  9996
2 60396  88.9739 304.2463 0013590 343.8530  16.2186 13.50975302 60652
QIANFAN-19              
1 61552U 24185A   25295.85473532  .00000861  00000+0  44419-3 0  9998
2 61552  88.9777  83.7663 0009024 105.2109 255.0076 14.14212744 62477
QIANFAN-20              
1 61553U 24185B   25295.83251218  .00000827  00000+0  47198-3 0  9991
2 61553  88.9776  84.0415 0007070 135.4079 224.7674 14.08762828 62323
QIANFAN-21              
1 61554U 24185C   25295.82378374  .00001179  00000+0  52213-3 0  9999
2 61554  88.9696  82.9372 0011391 158.9974 201.1688 14.22497853 62737
QIANFAN-22              
1 61555U 24185D   25295.83109457  .00000231  00000+0  18838-3 0  9998
2 61555  88.9759  84.8187 0007879 139.3679 220.8081 13.86275043 61888
QIANFAN-23              
1 61556U 24185E   25295.83120139  .00001054  00000+0  52553-3 0  9995
2 61556  88.9772  83.6025 0009750 115.0310 245.1891 14.16210819 62542
QIANFAN-24              
1 61557U 24185F   25295.86951466  .00001161  00000+0  50220-3 0  9992
2 61557  88.9752  83.0863 0011671 102.4602 257.7896 14.23706325 62784
